{
  "norad_id": 48272,
  "name": "NORSAT 3",
  "history": [
    {
      "epoch": "2026-03-28T22:55:39.285120Z",
      "apogee_km": 557.6671064769689,
      "perigee_km": 548.1287548261053,
      "latitude_deg": -1.6290118344830282e-05,
      "longitude_deg": -23.11992402238237,
      "height_km": 560.445863104429,
      "semi_major_axis_km": 6931.034930651537,
      "eccentricity": 0.00068809,
      "inclination_deg": 97.5412,
      "raan_deg": 147.1621,
      "arg_perigee_deg": 200.111,
      "mean_anomaly_deg": 159.9846,
      "mean_motion_rev_day": 15.04546555
    },
    {
      "epoch": "2026-03-29T05:18:43.977312Z",
      "apogee_km": 557.692316747668,
      "perigee_km": 548.0734473553566,
      "latitude_deg": -6.326471984219821e-05,
      "longitude_deg": -118.89167625571261,
      "height_km": 560.4918199270752,
      "semi_major_axis_km": 6931.0198820515125,
      "eccentricity": 0.0006939,
      "inclination_deg": 97.5411,
      "raan_deg": 147.4221,
      "arg_perigee_deg": 199.289,
      "mean_anomaly_deg": 160.8074,
      "mean_motion_rev_day": 15.04551455
    },
    {
      "epoch": "2026-03-30T05:15:16.188768Z",
      "apogee_km": 557.6649933371746,
      "perigee_km": 547.9824412151393,
      "latitude_deg": 1.1031788880839462e-05,
      "longitude_deg": -118.03577432860884,
      "height_km": 560.5536383351933,
      "semi_major_axis_km": 6930.960717276157,
      "eccentricity": 0.0006985,
      "inclination_deg": 97.5408,
      "raan_deg": 148.3955,
      "arg_perigee_deg": 195.6909,
      "mean_anomaly_deg": 164.4102,
      "mean_motion_rev_day": 15.0457072
    },
    {
      "epoch": "2026-03-30T06:51:02.318400Z",
      "apogee_km": 557.6717097450191,
      "perigee_km": 547.9734952116569,
      "latitude_deg": -3.900212210321767e-05,
      "longitude_deg": -141.9786258975841,
      "height_km": 560.5665090093529,
      "semi_major_axis_km": 6930.959602478338,
      "eccentricity": 0.00069963,
      "inclination_deg": 97.5408,
      "raan_deg": 148.4604,
      "arg_perigee_deg": 195.4055,
      "mean_anomaly_deg": 164.6959,
      "mean_motion_rev_day": 15.04571083
    }
  ]
}